{"fetched_at":"2026-03-30T06:02:59Z","count":15439,"tles":[{"name":"STARLINK-31751","line1":"1 59574U 24076L   26087.81292938 -.00002192  00000+0 -70124-4 0  9997","line2":"2 59574  43.0027 261.3339 0001291 261.8681  98.2024 15.27597704109428","category":"Starlink"}]}