{
  "norad_id": 59574,
  "name": "STARLINK-31751",
  "history": [
    {
      "epoch": "2026-03-28T19:30:37.098432",
      "apogee_km": 483.88185668785354,
      "perigee_km": 482.11031212545913,
      "latitude_deg": -14.348056168428878,
      "longitude_deg": -144.55877951998264,
      "semi_major_axis_km": 6861.133084406656,
      "eccentricity": 0.0001291,
      "inclination_deg": 43.0027,
      "raan_deg": 261.3339,
      "arg_perigee_deg": 261.8681,
      "mean_anomaly_deg": 98.2024,
      "mean_motion_rev_day": 15.27597704
    }
  ]
}